[Satellite]
VERSION=1.1
NAME=IRIDIUM 911 [-]
NICKNAME=IRIDIUM 911 [-]
TLE1=1 24842U 97030G   18020.75895516  .00000131  00000-0  31716-4 0  9993
TLE2=2 24842  86.4460 259.5225 0016592  88.7305 271.5798 14.45010099 84378
